     2.11           N: GPS NAV DATA                         RINEX VERSION / TYPE
teqc  2019Feb25                         20221121 12:27:22UTCPGM / RUN BY / DATE
OSX ker:10.11.6|Core i5|gcc 4.3 -m64|OSX ker:10.10+|=+      COMMENT
    7.4506D-09  1.4901D-08 -5.9605D-08 -1.1921D-07          ION ALPHA
    7.9872D+04  1.6384D+04 -1.3107D+05 -1.3107D+05          ION BETA
    1.862645149231D-09 7.105427357601D-15   589824     1549 DELTA-UTC: A0,A1,T,W
                                                            END OF HEADER
17 09  9 18  0  0  0.0 8.577853441238D-05 3.069544618484D-12 0.000000000000D+00
    1.040000000000D+02-4.340625000000D+01 4.365181827345D-09-9.730095760630D-01
   -2.209097146988D-06 4.656503675506D-03 1.318007707596D-05 5.153742757797D+03
    4.320000000000D+05 1.005828380585D-07 2.852066157626D+00 2.793967723846D-08
    9.603198793948D-01 1.245000000000D+02-2.642916686306D+00-7.903543500025D-09
   -8.821796034643D-11 1.000000000000D+00 1.549000000000D+03 0.000000000000D+00
    2.800000000000D+00 0.000000000000D+00-1.024454832077D-08 1.040000000000D+02
    4.248180000000D+05 4.000000000000D+00
32 09  9 18  0  0  0.0 1.946361735463D-04-7.162270776462D-12 0.000000000000D+00
    4.500000000000D+01-6.159375000000D+01 4.930205362843D-09-2.998194131894D+00
   -3.123655915260D-06 1.325791608542D-02 3.663823008537D-06 5.153712154388D+03
    4.320000000000D+05 9.685754776001D-08-1.270154163796D+00 1.993030309677D-07
    9.620546413003D-01 3.065625000000D+02-1.118195286259D+00-8.263558496095D-09
   -4.471614832135D-10 1.000000000000D+00 1.549000000000D+03 0.000000000000D+00
    2.000000000000D+00 0.000000000000D+00-3.259629011154D-09 4.500000000000D+01
    4.248180000000D+05 4.000000000000D+00
20 09  9 18  0  0  0.0 7.204245775938D-05-9.094947017729D-13 0.000000000000D+00
    3.000000000000D+00-4.546875000000D+01 5.633806099209D-09 5.421687382927D-01
   -2.371147274971D-06 3.838531789370D-03 2.991408109665D-06 5.153766128540D+03
    4.320000000000D+05 1.303851604462D-08-1.382172231033D+00 4.470348358154D-08
    9.400324898864D-01 3.101250000000D+02 1.321129529639D+00-8.929300512636D-09
   -3.560862609935D-10 1.000000000000D+00 1.549000000000D+03 0.000000000000D+00
    2.000000000000D+00 0.000000000000D+00-7.450580596924D-09 3.000000000000D+00
    4.248180000000D+05 4.000000000000D+00
11 09  9 18  0  0  0.0-2.011936157942D-05-1.818989403546D-12 0.000000000000D+00
    7.200000000000D+01 8.625000000000D+01 6.183829009871D-09 2.403854437478D+00
    4.479661583900D-06 9.855129290372D-03 1.020729541779D-05 5.153706098557D+03
    4.320000000000D+05-1.583248376846D-07-2.623236396097D+00-2.291053533554D-07
    8.894268034422D-01 1.436250000000D+02 7.263433453101D-01-8.729292181487D-09
    5.943104697023D-10 1.000000000000D+00 1.549000000000D+03 0.000000000000D+00
    2.000000000000D+00 0.000000000000D+00-1.164153218269D-08 7.200000000000D+01
    4.248180000000D+05 4.000000000000D+00
28 09  9 18  0  0  0.0-2.615340054035D-05 0.000000000000D+00 0.000000000000D+00
    4.100000000000D+01-5.668750000000D+01 4.837344351952D-09-4.192163692902D-01
   -2.810731530190D-06 1.508629904129D-02 3.706663846970D-06 5.153649276733D+03
    4.320000000000D+05-1.061707735062D-07 1.817377224073D+00 1.732259988785D-07
    9.673287228384D-01 3.152500000000D+02-2.016619903399D+00-8.730720812423D-09
   -1.982225424788D-10 1.000000000000D+00 1.549000000000D+03 0.000000000000D+00
    2.800000000000D+00 0.000000000000D+00-1.024454832077D-08 4.100000000000D+01
    4.248180000000D+05 4.000000000000D+00
14 09  9 18  0  0  0.0-4.952494055033D-05 5.229594535194D-12 0.000000000000D+00
    1.230000000000D+02-2.725000000000D+01 3.550862193377D-09-1.470695778325D+00
   -1.495704054832D-06 4.923198721372D-03 1.446716487408D-05 5.153652460098D+03
    4.320000000000D+05 1.881271600723D-07-2.675007574746D-01-5.587935447693D-09
    9.881269501737D-01 1.175625000000D+02-2.156197821425D+00-7.499598102649D-09
   -4.053740283126D-10 1.000000000000D+00 1.549000000000D+03 0.000000000000D+00
    2.000000000000D+00 0.000000000000D+00-8.847564458847D-09 1.230000000000D+02
    4.248180000000D+05 4.000000000000D+00
26 09  9 18  0  0  0.0 6.249779835343D-05-1.023181539495D-12 0.000000000000D+00
    1.100000000000D+01-3.018750000000D+01 3.434071614295D-09 1.976176062865D+00
   -1.905485987663D-06 1.969118195120D-02 1.517124474049D-05 5.153614976883D+03
    4.320000000000D+05-1.881271600723D-07-2.498867937023D-01-4.060566425323D-07
    9.925124845288D-01 1.060000000000D+02 1.027080242495D+00-7.430666659950D-09
   -3.710868858297D-10 1.000000000000D+00 1.549000000000D+03 0.000000000000D+00
    2.000000000000D+00 0.000000000000D+00-6.053596735001D-09 1.100000000000D+01
    4.248180000000D+05 4.000000000000D+00
27 09  9 18  0  0  0.0 8.362857624888D-05 3.183231456205D-12 0.000000000000D+00
    5.000000000000D+01 1.184687500000D+02 4.135172246522D-09-1.366632623654D+00
    6.582587957382D-06 2.135706215631D-02 8.037313818932D-06 5.153741657257D+03
    4.320000000000D+05-7.450580596924D-08 6.816442652197D-01 5.140900611877D-07
    9.757743654218D-01 2.384375000000D+02-1.545064939276D+00-8.216770832915D-09
    6.271689812483D-10 1.000000000000D+00 1.549000000000D+03 0.000000000000D+00
    2.000000000000D+00 0.000000000000D+00-4.190951585770D-09 5.000000000000D+01
    4.248180000000D+05 4.000000000000D+00
 9 09  9 18  0  0  0.0 7.807835936546D-05 2.160049916711D-12 0.000000000000D+00
    1.110000000000D+02 1.027500000000D+02 4.165887811663D-09 1.637359405151D+00
    4.941597580910D-06 2.068010205403D-02 8.126720786095D-06 5.153624917984D+03
    4.320000000000D+05 1.266598701477D-07 7.059364997631D-01-5.066394805908D-07
    9.777132336578D-01 2.284687500000D+02 1.513407570517D+00-8.038906281285D-09
    6.171685646908D-10 1.000000000000D+00 1.549000000000D+03 0.000000000000D+00
    2.000000000000D+00 0.000000000000D+00-5.587935447693D-09 1.110000000000D+02
    4.248180000000D+05 4.000000000000D+00
12 09  9 18  0  0  0.0-2.173986285925D-04 5.684341886081D-12 0.000000000000D+00
    8.700000000000D+01-6.046875000000D+01 4.779841956746D-09 2.568436918507D+00
   -3.302469849586D-06 3.091411665082D-03 3.322958946228D-06 5.153567878723D+03
    4.320000000000D+05 3.725290298462D-09 1.792209406727D+00 8.754432201386D-08
    9.677281418986D-01 3.158125000000D+02-5.860741984914D-01-8.458566618966D-09
   -2.792973481413D-10 1.000000000000D+00 1.549000000000D+03 0.000000000000D+00
    2.000000000000D+00 0.000000000000D+00-1.164153218269D-08 8.700000000000D+01
    4.252620000000D+05 4.000000000000D+00
 4 09  9 18  0  0  0.0-2.703694626689D-04-1.739408617141D-11 0.000000000000D+00
    2.200000000000D+01 9.553125000000D+01 5.351294331460D-09 7.955415502074D-01
    5.206093192101D-06 8.763499557972D-03 7.305294275284D-06 5.153801811218D+03
    4.320000000000D+05-1.117587089539D-08-2.399177744389D+00 1.359730958939D-07
    9.401561298708D-01 2.265625000000D+02 5.148156826767D-01-8.648931691292D-09
    4.464471677451D-10 1.000000000000D+00 1.549000000000D+03 0.000000000000D+00
    2.000000000000D+00 0.000000000000D+00-6.053596735001D-09 2.200000000000D+01
    4.253520000000D+05 4.000000000000D+00
23 09  9 18  0  0  0.0 3.884672187269D-04-3.410605131648D-13 0.000000000000D+00
    5.600000000000D+01-3.553125000000D+01 3.973022635197D-09-2.122155859624D+00
   -1.925975084305D-06 6.468947743997D-03 1.361779868603D-05 5.153577348709D+03
    4.320000000000D+05-1.005828380585D-07-3.019790697032D-01-4.470348358154D-08
    9.700383894440D-01 1.225000000000D+02 2.972623137251D+00-7.729250525737D-09
   -3.039412318009D-10 1.000000000000D+00 1.549000000000D+03 0.000000000000D+00
    2.000000000000D+00 0.000000000000D+00-2.002343535423D-08 5.600000000000D+01
    4.284420000000D+05 4.000000000000D+00
30 09  9 18  0  0  0.0 1.777778379619D-04 3.183231456205D-12 0.000000000000D+00
    1.000000000000D+02-4.775000000000D+01 5.216645865668D-09 6.681839413432D-02
   -2.698972821236D-06 1.192294573411D-02 3.080815076828D-06 5.153663461685D+03
    4.320000000000D+05-2.291053533554D-07 1.742604432321D+00 6.519258022308D-08
    9.528440081319D-01 3.182812500000D+02 1.453418037015D+00-8.889298846406D-09
   -2.182233755938D-10 1.000000000000D+00 1.549000000000D+03 0.000000000000D+00
    2.800000000000D+00 0.000000000000D+00-7.916241884232D-09 1.000000000000D+02
    4.290420000000D+05 4.000000000000D+00
 2 09  9 18  0  0  0.0 1.732697710395D-04 3.069544618484D-12 0.000000000000D+00
    7.800000000000D+01 9.712500000000D+01 5.249861534948D-09-2.042450949286D+00
    5.010515451431D-06 9.082088479772D-03 7.860362529755D-06 5.153710325241D+03
    4.320000000000D+05-1.341104507446D-07-2.417409562834D+00-1.192092895508D-07
    9.409812829617D-01 2.192187500000D+02 2.893432603539D+00-8.503211335740D-09
    6.296690853877D-10 1.000000000000D+00 1.549000000000D+03 0.000000000000D+00
    2.000000000000D+00 0.000000000000D+00-1.722946763039D-08 7.800000000000D+01
    4.292220000000D+05 4.000000000000D+00
31 09  9 18  0  0  0.0-6.423424929380D-05 5.684341886081D-13 0.000000000000D+00
    1.740000000000D+02 1.030000000000D+02 4.132672142383D-09 2.362360906408D+00
    5.476176738739D-06 7.047851686366D-03 8.126720786095D-06 5.153788499832D+03
    4.320000000000D+05 7.264316082001D-08 7.375586019563D-01-1.117587089539D-08
    9.741498226903D-01 2.258437500000D+02-1.140265673008D+00-7.924972964077D-09
    5.528801725355D-10 1.000000000000D+00 1.549000000000D+03 0.000000000000D+00
    2.000000000000D+00 0.000000000000D+00-1.303851604462D-08 1.740000000000D+02
    4.300020000000D+05 4.000000000000D+00
